{
  "type": "FeatureCollection",
  "features": [
    {
      "type": "Feature",
      "properties": {
        "norad_id": 35961,
        "name": "COSMOS 2251 DEB",
        "group": "cosmos-2251-debris",
        "lat": 53.17722027418713,
        "lon": -24.969100654254767,
        "alt_km": 735.4598740478687,
        "timestamp": "2025-12-27T19:21:59.141852+00:00",
        "meta_object_name": "COSMOS 2251 DEB",
        "meta_object_id": "1993-036AVB",
        "meta_epoch": "2025-12-23T19:07:42.767328",
        "meta_mean_motion": 14.05444821,
        "meta_eccentricity": 0.01917264,
        "meta_inclination": 73.9256,
        "meta_ra_of_asc_node": 184.7319,
        "meta_arg_of_pericenter": 115.7574,
        "meta_mean_anomaly": 246.3488,
        "meta_ephemeris_type": 0,
        "meta_classification_type": "U",
        "meta_norad_cat_id": 35961,
        "meta_element_set_no": 999,
        "meta_rev_at_epoch": 62837,
        "meta_bstar": 0.0013269491,
        "meta_mean_motion_dot": 2.518e-05,
        "meta_mean_motion_ddot": 0,
        "tle_line1": "1 35961U 93036AVB 25357.79702277  .00002518  00000+0  13269-2 0  9996",
        "tle_line2": "2 35961  73.9256 184.7319 0191726 115.7574 246.3488 14.05444821628371"
      },
      "geometry": {
        "type": "Point",
        "coordinates": [
          -24.969100654254767,
          53.17722027418713
        ]
      }
    },
    {
      "type": "Feature",
      "properties": {
        "norad_id": 35979,
        "name": "COSMOS 2251 DEB",
        "group": "cosmos-2251-debris",
        "lat": 12.796794533302023,
        "lon": 25.171639475314027,
        "alt_km": 687.7509847254241,
        "timestamp": "2025-12-27T19:21:59.141860+00:00",
        "meta_object_name": "COSMOS 2251 DEB",
        "meta_object_id": "1993-036AVV",
        "meta_epoch": "2025-12-22T21:28:01.748352",
        "meta_mean_motion": 14.74747539,
        "meta_eccentricity": 0.0059307,
        "meta_inclination": 74.008,
        "meta_ra_of_asc_node": 218.5159,
        "meta_arg_of_pericenter": 348.3492,
        "meta_mean_anomaly": 27.9615,
        "meta_ephemeris_type": 0,
        "meta_classification_type": "U",
        "meta_norad_cat_id": 35979,
        "meta_element_set_no": 999,
        "meta_rev_at_epoch": 88783,
        "meta_bstar": 0.00076773,
        "meta_mean_motion_dot": 5.251e-05,
        "meta_mean_motion_ddot": 0,
        "tle_line1": "1 35979U 93036AVV 25356.89446468  .00005251  00000+0  76773-3 0  9999",
        "tle_line2": "2 35979  74.0080 218.5159 0059307 348.3492  27.9615 14.74747539887837"
      },
      "geometry": {
        "type": "Point",
        "coordinates": [
          25.171639475314027,
          12.796794533302023
        ]
      }
    },
    {
      "type": "Feature",
      "properties": {
        "norad_id": 35980,
        "name": "COSMOS 2251 DEB",
        "group": "cosmos-2251-debris",
        "lat": -60.104323398347105,
        "lon": 63.610808136202714,
        "alt_km": 687.9553884349207,
        "timestamp": "2025-12-27T19:21:59.141869+00:00",
        "meta_object_name": "COSMOS 2251 DEB",
        "meta_object_id": "1993-036AVW",
        "meta_epoch": "2025-12-25T13:22:27.353856",
        "meta_mean_motion": 14.59476627,
        "meta_eccentricity": 0.0053822,
        "meta_inclination": 73.912,
        "meta_ra_of_asc_node": 98.0618,
        "meta_arg_of_pericenter": 231.0081,
        "meta_mean_anomaly": 128.6285,
        "meta_ephemeris_type": 0,
        "meta_classification_type": "U",
        "meta_norad_cat_id": 35980,
        "meta_element_set_no": 999,
        "meta_rev_at_epoch": 61673,
        "meta_bstar": 0.0016517,
        "meta_mean_motion_dot": 7.974e-05,
        "meta_mean_motion_ddot": 0,
        "tle_line1": "1 35980U 93036AVW 25359.55726104  .00007974  00000+0  16517-2 0  9998",
        "tle_line2": "2 35980  73.9120  98.0618 0053822 231.0081 128.6285 14.59476627616732"
      },
      "geometry": {
        "type": "Point",
        "coordinates": [
          63.610808136202714,
          -60.104323398347105
        ]
      }
    },
    {
      "type": "Feature",
      "properties": {
        "norad_id": 35982,
        "name": "COSMOS 2251 DEB",
        "group": "cosmos-2251-debris",
        "lat": 40.54004565462311,
        "lon": -27.76441556132256,
        "alt_km": 638.2196843626489,
        "timestamp": "2025-12-27T19:21:59.141878+00:00",
        "meta_object_name": "COSMOS 2251 DEB",
        "meta_object_id": "1993-036AVY",
        "meta_epoch": "2025-12-27T04:24:12.024000",
        "meta_mean_motion": 14.62841816,
        "meta_eccentricity": 0.00646581,
        "meta_inclination": 74.0588,
        "meta_ra_of_asc_node": 319.2785,
        "meta_arg_of_pericenter": 21.4972,
        "meta_mean_anomaly": 338.8887,
        "meta_ephemeris_type": 0,
        "meta_classification_type": "U",
        "meta_norad_cat_id": 35982,
        "meta_element_set_no": 999,
        "meta_rev_at_epoch": 86377,
        "meta_bstar": 0.00083484035,
        "meta_mean_motion_dot": 4.366e-05,
        "meta_mean_motion_ddot": 0,
        "tle_line1": "1 35982U 93036AVY 25361.18347250  .00004366  00000+0  83484-3 0  9993",
        "tle_line2": "2 35982  74.0588 319.2785 0064658  21.4972 338.8887 14.62841816863777"
      },
      "geometry": {
        "type": "Point",
        "coordinates": [
          -27.76441556132256,
          40.54004565462311
        ]
      }
    },
    {
      "type": "Feature",
      "properties": {
        "norad_id": 35987,
        "name": "COSMOS 2251 DEB",
        "group": "cosmos-2251-debris",
        "lat": 49.28279898866031,
        "lon": -41.93064716695398,
        "alt_km": 710.2062530728381,
        "timestamp": "2025-12-27T19:21:59.141887+00:00",
        "meta_object_name": "COSMOS 2251 DEB",
        "meta_object_id": "1993-036AWD",
        "meta_epoch": "2025-12-27T02:29:30.400512",
        "meta_mean_motion": 14.43218044,
        "meta_eccentricity": 0.00464782,
        "meta_inclination": 73.9999,
        "meta_ra_of_asc_node": 299.9031,
        "meta_arg_of_pericenter": 61.1887,
        "meta_mean_anomaly": 299.3924,
        "meta_ephemeris_type": 0,
        "meta_classification_type": "U",
        "meta_norad_cat_id": 35987,
        "meta_element_set_no": 999,
        "meta_rev_at_epoch": 61272,
        "meta_bstar": 0.0012323895,
        "meta_mean_motion_dot": 4.175e-05,
        "meta_mean_motion_ddot": 0,
        "tle_line1": "1 35987U 93036AWD 25361.10382408  .00004175  00000+0  12324-2 0  9996",
        "tle_line2": "2 35987  73.9999 299.9031 0046478  61.1887 299.3924 14.43218044612720"
      },
      "geometry": {
        "type": "Point",
        "coordinates": [
          -41.93064716695398,
          49.28279898866031
        ]
      }
    },
    {
      "type": "Feature",
      "properties": {
        "norad_id": 35989,
        "name": "COSMOS 2251 DEB",
        "group": "cosmos-2251-debris",
        "lat": 48.47269970256947,
        "lon": 57.26828908720364,
        "alt_km": 777.8313411878844,
        "timestamp": "2025-12-27T19:21:59.141896+00:00",
        "meta_object_name": "COSMOS 2251 DEB",
        "meta_object_id": "1993-036AWF",
        "meta_epoch": "2025-12-27T10:24:57.289824",
        "meta_mean_motion": 14.37121425,
        "meta_eccentricity": 0.0022613,
        "meta_inclination": 74.0378,
        "meta_ra_of_asc_node": 256.8103,
        "meta_arg_of_pericenter": 335.5662,
        "meta_mean_anomaly": 24.4417,
        "meta_ephemeris_type": 0,
        "meta_classification_type": "U",
        "meta_norad_cat_id": 35989,
        "meta_element_set_no": 999,
        "meta_rev_at_epoch": 87390,
        "meta_bstar": 0.00021574,
        "meta_mean_motion_dot": 6.17e-06,
        "meta_mean_motion_ddot": 0,
        "tle_line1": "1 35989U 93036AWF 25361.43399641  .00000617  00000+0  21574-3 0  9996",
        "tle_line2": "2 35989  74.0378 256.8103 0022613 335.5662  24.4417 14.37121425873903"
      },
      "geometry": {
        "type": "Point",
        "coordinates": [
          57.26828908720364,
          48.47269970256947
        ]
      }
    },
    {
      "type": "Feature",
      "properties": {
        "norad_id": 35993,
        "name": "COSMOS 2251 DEB",
        "group": "cosmos-2251-debris",
        "lat": 72.47509123836596,
        "lon": 58.57094610283697,
        "alt_km": 651.3765902755968,
        "timestamp": "2025-12-27T19:21:59.141905+00:00",
        "meta_object_name": "COSMOS 2251 DEB",
        "meta_object_id": "1993-036AWK",
        "meta_epoch": "2025-12-21T03:59:29.501088",
        "meta_mean_motion": 14.65356197,
        "meta_eccentricity": 0.0028516,
        "meta_inclination": 74.0154,
        "meta_ra_of_asc_node": 316.5577,
        "meta_arg_of_pericenter": 143.4068,
        "meta_mean_anomaly": 216.9056,
        "meta_ephemeris_type": 0,
        "meta_classification_type": "U",
        "meta_norad_cat_id": 35993,
        "meta_element_set_no": 999,
        "meta_rev_at_epoch": 60566,
        "meta_bstar": 0.00046927088,
        "meta_mean_motion_dot": 2.519e-05,
        "meta_mean_motion_ddot": 0,
        "tle_line1": "1 35993U 93036AWK 25355.16631367  .00002519  00000+0  46927-3 0  9990",
        "tle_line2": "2 35993  74.0154 316.5577 0028516 143.4068 216.9056 14.65356197605663"
      },
      "geometry": {
        "type": "Point",
        "coordinates": [
          58.57094610283697,
          72.47509123836596
        ]
      }
    }
  ]
}